KUZGTU 1 (RS47S)        
1 57217U 23091AV  26204.26048419  .00012424  00000+0  42182-3 0  9997
2 57217  97.5044 269.1229 0009285 335.7945  24.2858 15.30602965169893
SONATE-2                
1 59112U 24043Q   26203.99379151  .00047616  00000+0  55855-3 0  9992
2 59112  97.5559 356.6682 0006404  80.6308 279.5672 15.61343628133470
MESAT1                  
1 60209U 24125G   26204.16282645  .00073659  00000+0  67974-3 0  9994
2 60209  97.2246  62.5650 0010340  87.9151 272.3294 15.67301729115199
OOV-CUBE (TUBSAT-30)    
1 60240U 24128F   26204.18460515  .00001732  00000+0  14199-3 0  9992
2 60240  61.9942 100.0399 0040077 141.8645 218.5295 15.02898344111520
COLIBRI-S (RS67S)       
1 61746U 24199M   26204.25080819  .00024252  00000+0  44644-3 0  9995
2 61746  97.2942  78.4607 0009710 136.5965 223.6053 15.49123800142992
HORS 3 (RS81S)          
1 61753U 24199U   26204.29091793  .00040347  00000+0  54983-3 0  9990
2 61753  97.2925  80.9059 0007926 132.5898 227.6027 15.57391205143179
HORS 4 (RS82S)          
1 61754U 24199V   26204.25971605  .00061709  00000+0  67481-3 0  9998
2 61754  97.2864  82.3334 0007549 127.0225 233.1726 15.63091926143271
SIT-2086                
1 61764U 24199AF  26204.24869375  .00041551  00000+0  60685-3 0  9990
2 61764  97.2882  81.2139 0008693 121.4564 238.7542 15.55500628140031
HYPERVIEW 1G (RS66S)    
1 61772U 24199AP  26204.24987941  .00191334  15095-4  68499-3 0  9990
2 61772  97.2767  86.1005 0008498 137.0944 223.0993 15.88756745140379
ALTAIR (RS65S)          
1 61779U 24199AW  26204.23684137  .00008545  00000+0  23298-3 0  9991
2 61779  97.2987  73.3569 0012950 167.5700 192.5867 15.37621865142650
ASRTU-1 (AO-123)        
1 61781U 24199AY  26204.25802504  .00007652  00000+0  21896-3 0  9996
2 61781  97.2959  72.6068 0013897 171.2589 188.8900 15.36140283139466
SAMSAT-IONOSPHERE (RS7*)
1 61784U 24199BB  26204.25530252  .00057504  00000+0  68749-3 0  9996
2 61784  97.2887  81.0646 0009921 135.9610 224.2440 15.60768481143181
RTU MIREA 1 (RS51S)     
1 61785U 24199BC  26204.25386196  .00074649  00000+0  75141-3 0  9996
2 61785  97.2871  82.1039 0009879 131.8705 228.3400 15.65129549140106
TEVEL2-4                
1 63213U 25052D   26204.16105969  .00019975  00000+0  57523-3 0  9995
2 63213  97.3852 100.6345 0002749  36.8578 323.2855 15.35785273 75634
TEVEL2-5                
1 63214U 25052E   26204.12064543  .00022371  00000+0  64765-3 0  9994
2 63214  97.3847 100.5315 0002796  37.6087 322.5351 15.35594951 75624
TEVEL2-6                
1 63215U 25052F   26203.67764483  .00020647  00000+0  59914-3 0  9998
2 63215  97.3857 100.0719 0002905  41.4403 318.7060 15.35538157 75558
TEVEL2-1                
1 63217U 25052H   26204.17584741  .00019031  00000+0  56235-3 0  9991
2 63217  97.3828 100.1515 0003481  42.9181 317.2333 15.34981736 75610
TEVEL2-3                
1 63218U 25052J   26204.16907910  .00018992  00000+0  56009-3 0  9992
2 63218  97.3845 100.1708 0003319  47.1556 312.9966 15.35045842 75611
TEVEL2-2                
1 63219U 25052K   26204.17591660  .00019088  00000+0  56382-3 0  9996
2 63219  97.3828 100.1546 0003555  43.1044 317.0478 15.34993188 75611
OTP-2                   
1 63235U 25052AB  26204.13749129  .00008011  00000+0  32920-3 0  9991
2 63235  97.3822  96.0335 0007687  49.2368 310.9536 15.24420687 75343
TEVEL2-9                
1 63237U 25052AD  26204.13561891  .00017574  00000+0  55412-3 0  9996
2 63237  97.3893  99.4092 0006834  33.9288 326.2390 15.32921682 75533
TEVEL2-7                
1 63238U 25052AE  26204.18374539  .00017497  00000+0  55721-3 0  9990
2 63238  97.3892  99.3574 0006947  34.3154 325.8535 15.32602566 75532
TEVEL2-8                
1 63239U 25052AF  26204.19234242  .00017529  00000+0  55846-3 0  9992
2 63239  97.3893  99.3419 0006998  35.0909 325.0793 15.32588658 75537
INNOSAT 16 (RS92S7)     
1 64878U 25155C   26204.27243262  .00005627  00000+0  22259-3 0  9995
2 64878  97.4586 171.2996 0012202  64.3779 295.8719 15.25803733 86172
GEOSCAN 6 (RS92S6)      
1 64879U 25155D   26204.27199527  .00011047  00000+0  37337-3 0  9996
2 64879  97.4576 172.9851 0009507  59.3432 300.8744 15.30775428 86286
GEOSCAN 1 (RS92S1)      
1 64880U 25155E   26204.25961369  .00011906  00000+0  39409-3 0  9993
2 64880  97.4572 173.1537 0009458  59.8054 300.4123 15.31432024 86299
239ALFEROV (RS61S)      
1 64881U 25155F   26204.24033601  .00015444  00000+0  47323-3 0  9997
2 64881  97.4571 173.8227 0009142  60.0262 300.1887 15.33844793 86338
GEOSCAN 2 (RS92S2)      
1 64890U 25155Q   26204.24713199  .00011573  00000+0  38023-3 0  9990
2 64890  97.4570 173.3076 0008461  49.9139 310.2843 15.31689035 86301
GEOSCAN 5 (RS92S5)      
1 64891U 25155R   26204.28728945  .00015038  00000+0  45661-3 0  9996
2 64891  97.4563 174.0212 0008226  65.1923 295.0175 15.34147968 86354
GEOSCAN 4 (RS92S4)      
1 64892U 25155S   26204.26765819  .00015987  00000+0  48261-3 0  9998
2 64892  97.4568 174.0607 0008094  65.6859 294.5228 15.34320147 86359
