OBJECT_NAME,OBJECT_ID,EPOCH,MEAN_MOTION,ECCENTRICITY,INCLINATION,RA_OF_ASC_NODE,ARG_OF_PERICENTER,MEAN_ANOMALY,EPHEMERIS_TYPE,CLASSIFICATION_TYPE,NORAD_CAT_ID,ELEMENT_SET_NO,REV_AT_EPOCH,BSTAR,MEAN_MOTION_DOT,MEAN_MOTION_DDOT
KUZGTU 1 (RS47S),2023-091AV,2026-07-23T06:15:05.834016,15.30602965,.00092856,97.5044,269.1229,335.7945,24.2858,0,U,57217,999,16989,.42182405E-3,.12424E-3,0
SONATE-2,2024-043Q,2026-07-22T23:51:03.586464,15.61343628,.00064048,97.5559,356.6682,80.6308,279.5672,0,U,59112,999,13347,.55854583E-3,.47616E-3,0
MESAT1,2024-125G,2026-07-23T03:54:28.205280,15.67301729,.00103402,97.2246,62.5650,87.9151,272.3294,0,U,60209,999,11519,.67973828E-3,.73659E-3,0
OOV-CUBE (TUBSAT-30),2024-128F,2026-07-23T04:25:49.884960,15.02898344,.00400777,61.9942,100.0399,141.8645,218.5295,0,U,60240,999,11152,.14199344E-3,.1732E-4,0
COLIBRI-S (RS67S),2024-199M,2026-07-23T06:01:09.827616,15.49123800,.00097103,97.2942,78.4607,136.5965,223.6053,0,U,61746,999,14299,.4464359E-3,.24252E-3,0
HORS 3 (RS81S),2024-199U,2026-07-23T06:58:55.309152,15.57391205,.00079263,97.2925,80.9059,132.5898,227.6027,0,U,61753,999,14317,.54983495E-3,.40347E-3,0
HORS 4 (RS82S),2024-199V,2026-07-23T06:13:59.466720,15.63091926,.00075496,97.2864,82.3334,127.0225,233.1726,0,U,61754,999,14327,.67480821E-3,.61709E-3,0
SIT-2086,2024-199AF,2026-07-23T05:58:07.140000,15.55500628,.00086939,97.2882,81.2139,121.4564,238.7542,0,U,61764,999,14003,.60684617E-3,.41551E-3,0
HYPERVIEW 1G (RS66S),2024-199AP,2026-07-23T05:59:49.581024,15.88756745,.00084986,97.2767,86.1005,137.0944,223.0993,0,U,61772,999,14037,.68499428E-3,.191334E-2,.15094819E-4
ALTAIR (RS65S),2024-199AW,2026-07-23T05:41:03.094368,15.37621865,.00129509,97.2987,73.3569,167.5700,192.5867,0,U,61779,999,14265,.23298074E-3,.8545E-4,0
ASRTU-1 (AO-123),2024-199AY,2026-07-23T06:11:33.363456,15.36140283,.00138976,97.2959,72.6068,171.2589,188.8900,0,U,61781,999,13946,.21895554E-3,.7652E-4,0
SAMSAT-IONOSPHERE (RS75S),2024-199BB,2026-07-23T06:07:38.137728,15.60768481,.00099211,97.2887,81.0646,135.9610,224.2440,0,U,61784,999,14318,.68749367E-3,.57504E-3,0
RTU MIREA 1 (RS51S),2024-199BC,2026-07-23T06:05:33.673344,15.65129549,.00098798,97.2871,82.1039,131.8705,228.3400,0,U,61785,999,14010,.75141422E-3,.74649E-3,0
TEVEL2-4,2025-052D,2026-07-23T03:51:55.557216,15.35785273,.00027495,97.3852,100.6345,36.8578,323.2855,0,U,63213,999,7563,.57522706E-3,.19975E-3,0
TEVEL2-5,2025-052E,2026-07-23T02:53:43.765152,15.35594951,.00027969,97.3847,100.5315,37.6087,322.5351,0,U,63214,999,7562,.64765456E-3,.22371E-3,0
TEVEL2-6,2025-052F,2026-07-22T16:15:48.513312,15.35538157,.0002905,97.3857,100.0719,41.4403,318.7060,0,U,63215,999,7555,.59913706E-3,.20647E-3,0
TEVEL2-1,2025-052H,2026-07-23T04:13:13.216224,15.34981736,.00034813,97.3828,100.1515,42.9181,317.2333,0,U,63217,999,7561,.56235343E-3,.19031E-3,0
TEVEL2-3,2025-052J,2026-07-23T04:03:28.434240,15.35045842,.00033196,97.3845,100.1708,47.1556,312.9966,0,U,63218,999,7561,.56009114E-3,.18992E-3,0
TEVEL2-2,2025-052K,2026-07-23T04:13:19.194240,15.34993188,.00035552,97.3828,100.1546,43.1044,317.0478,0,U,63219,999,7561,.56381978E-3,.19088E-3,0
OTP-2,2025-052AB,2026-07-23T03:17:59.247456,15.24420687,.00076872,97.3822,96.0335,49.2368,310.9536,0,U,63235,999,7534,.32919722E-3,.8011E-4,0
TEVEL2-9,2025-052AD,2026-07-23T03:15:17.473824,15.32921682,.00068345,97.3893,99.4092,33.9288,326.2390,0,U,63237,999,7553,.55411748E-3,.17574E-3,0
TEVEL2-7,2025-052AE,2026-07-23T04:24:35.601696,15.32602566,.00069479,97.3892,99.3574,34.3154,325.8535,0,U,63238,999,7553,.55720876E-3,.17497E-3,0
TEVEL2-8,2025-052AF,2026-07-23T04:36:58.385088,15.32588658,.00069989,97.3893,99.3419,35.0909,325.0793,0,U,63239,999,7553,.55845837E-3,.17529E-3,0
INNOSAT 16 (RS92S7),2025-155C,2026-07-23T06:32:18.178368,15.25803733,.00122023,97.4586,171.2996,64.3779,295.8719,0,U,64878,999,8617,.22259402E-3,.5627E-4,0
GEOSCAN 6 (RS92S6),2025-155D,2026-07-23T06:31:40.391328,15.30775428,.00095072,97.4576,172.9851,59.3432,300.8744,0,U,64879,999,8628,.37337221E-3,.11047E-3,0
GEOSCAN 1 (RS92S1),2025-155E,2026-07-23T06:13:50.622816,15.31432024,.00094584,97.4572,173.1537,59.8054,300.4123,0,U,64880,999,8629,.39409312E-3,.11906E-3,0
239ALFEROV (RS61S),2025-155F,2026-07-23T05:46:05.031264,15.33844793,.00091426,97.4571,173.8227,60.0262,300.1887,0,U,64881,999,8633,.47323348E-3,.15444E-3,0
GEOSCAN 2 (RS92S2),2025-155Q,2026-07-23T05:55:52.203936,15.31689035,.00084619,97.4570,173.3076,49.9139,310.2843,0,U,64890,999,8630,.38023428E-3,.11573E-3,0
GEOSCAN 5 (RS92S5),2025-155R,2026-07-23T06:53:41.808480,15.34147968,.00082266,97.4563,174.0212,65.1923,295.0175,0,U,64891,999,8635,.4566122E-3,.15038E-3,0
GEOSCAN 4 (RS92S4),2025-155S,2026-07-23T06:25:25.667616,15.34320147,.00080944,97.4568,174.0607,65.6859,294.5228,0,U,64892,999,8635,.48261318E-3,.15987E-3,0
